1 33060U 08031A   19282.50399881 -.00000052  00000-0  22924-4 0  9990
2 33060  48.4445  45.7162 0006534 179.8425 180.2490 14.73577424607935
1 33060U 08031A   19282.84303699 -.00000045 +00000-0 +24034-4 0  9995
2 33060 048.4445 044.1203 0006544 181.2477 178.8420 14.73577562607994
1 33060U 08031A   19283.72453604 -.00000035  00000-0  25561-4 0  9990
2 33060  48.4446  39.9708 0006582 185.0917 174.9929 14.73577909608111
1 33060U 08031A   19283.79234368 -.00000037 +00000-0 +25215-4 0  9999
2 33060 048.4446 039.6516 0006585 185.3675 174.7167 14.73577916608134
